[c2024e1(wierzchos)]
absolute_magnitude             = 7
discoverer                     = K.W. Wierzchos
discovery                      = 2024-03-03
iau_designation                = C/2024 E1
name                           = C/2024 E1 (Wierzchos)
orbit_ArgOfPericenter          = 243.6584
orbit_AscendingNode            = 108.112
orbit_Eccentricity             = 1.000002
orbit_Epoch                    = 2460476.5
orbit_Inclination              = 75.2339
orbit_PericenterDistance       = 0.565184
orbit_TimeAtPericenter         = 2461061.2614
orbit_good                     = 1000
ref                            = MPEC 2024-F34
slope_parameter                = 4
type                           = comet

[c2024e2(bok)]
absolute_magnitude             = 8
discoverer                     = M.J. Brucker
discovery                      = 2024-03-10
iau_designation                = C/2024 E2
name                           = C/2024 E2 (Bok)
orbit_ArgOfPericenter          = 358.0488
orbit_AscendingNode            = 135.6517
orbit_Eccentricity             = 0.851462
orbit_Epoch                    = 2460476.5
orbit_Inclination              = 155.6494
orbit_PericenterDistance       = 7.692185
orbit_TimeAtPericenter         = 2460241.4817
orbit_good                     = 1000
ref                            = MPEC 2024-JU4
slope_parameter                = 4
type                           = comet

[c2024f2(panstarrs)]
absolute_magnitude             = 11
discovery                      = 2024-03-21
iau_designation                = C/2024 F2
name                           = C/2024 F2 (PANSTARRS)
orbit_ArgOfPericenter          = 112.9138
orbit_AscendingNode            = 138.9505
orbit_Eccentricity             = 0.601187
orbit_Epoch                    = 2460476.5
orbit_Inclination              = 13.7406
orbit_PericenterDistance       = 3.9683
orbit_TimeAtPericenter         = 2460520.688
orbit_good                     = 1000
ref                            = MPEC 2024-LE0
slope_parameter                = 4
type                           = comet

[c2024g1(wierzchos)]
absolute_magnitude             = 10
discoverer                     = K.W. Wierzchos
discovery                      = 2024-04-07
iau_designation                = C/2024 G1
name                           = C/2024 G1 (Wierzchos)
orbit_ArgOfPericenter          = 128.2197
orbit_AscendingNode            = 30.5905
orbit_Eccentricity             = 0.968353
orbit_Epoch                    = 2460476.5
orbit_Inclination              = 95.4023
orbit_PericenterDistance       = 3.930582
orbit_TimeAtPericenter         = 2460604.5504
orbit_good                     = 1000
ref                            = MPEC 2024-LE0
slope_parameter                = 4
type                           = comet

[c2024g2(atlas)]
absolute_magnitude             = 7
discovery                      = 2024-04-08
iau_designation                = C/2024 G2
name                           = C/2024 G2 (ATLAS)
orbit_ArgOfPericenter          = 328.7913
orbit_AscendingNode            = 171.3907
orbit_Eccentricity             = 0.994025
orbit_Epoch                    = 2460476.5
orbit_Inclination              = 122.1332
orbit_PericenterDistance       = 5.34558
orbit_TimeAtPericenter         = 2460840.3028
orbit_good                     = 1000
ref                            = MPEC 2024-JU4
slope_parameter                = 4
type                           = comet

[c2024g3(atlas)]
absolute_magnitude             = 9
discovery                      = 2024-04-05
iau_designation                = C/2024 G3
name                           = C/2024 G3 (ATLAS)
orbit_ArgOfPericenter          = 108.1242
orbit_AscendingNode            = 220.3276
orbit_Eccentricity             = 1.00001
orbit_Epoch                    = 2460476.5
orbit_Inclination              = 116.8539
orbit_PericenterDistance       = 0.093488
orbit_TimeAtPericenter         = 2460688.929
orbit_good                     = 1000
ref                            = MPEC 2024-LE0
slope_parameter                = 4
type                           = comet

[c2024g4(panstarrs)]
absolute_magnitude             = 8
discovery                      = 2024-04-10
iau_designation                = C/2024 G4
name                           = C/2024 G4 (PANSTARRS)
orbit_ArgOfPericenter          = 131.4318
orbit_AscendingNode            = 153.0028
orbit_Eccentricity             = 0.998413
orbit_Epoch                    = 2460476.5
orbit_Inclination              = 33.0284
orbit_PericenterDistance       = 4.899271
orbit_TimeAtPericenter         = 2461121.2895
orbit_good                     = 1000
ref                            = MPEC 2024-LE0
slope_parameter                = 4
type                           = comet

[c2024g5(leonard)]
absolute_magnitude             = 13
discoverer                     = G.J. Leonard
discovery                      = 2024-04-05
iau_designation                = C/2024 G5
name                           = C/2024 G5 (Leonard)
orbit_ArgOfPericenter          = 209.5595
orbit_AscendingNode            = 316.3988
orbit_Eccentricity             = 0.994502
orbit_Epoch                    = 2460476.5
orbit_Inclination              = 50.3895
orbit_PericenterDistance       = 2.952873
orbit_TimeAtPericenter         = 2460560.49
orbit_good                     = 1000
ref                            = MPEC 2024-JC6
slope_parameter                = 4
type                           = comet

[c2024g6(atlas)]
absolute_magnitude             = 5.5
discovery                      = 2024-04-10
iau_designation                = C/2024 G6
name                           = C/2024 G6 (ATLAS)
orbit_ArgOfPericenter          = 23.3841
orbit_AscendingNode            = 250.9543
orbit_Eccentricity             = 1.000464
orbit_Epoch                    = 2460476.5
orbit_Inclination              = 120.4535
orbit_PericenterDistance       = 6.43483
orbit_TimeAtPericenter         = 2461092.217
orbit_good                     = 1000
ref                            = MPEC 2024-JD4
slope_parameter                = 4
type                           = comet

[c2024g7(atlas)]
absolute_magnitude             = 7
iau_designation                = C/2024 G7
name                           = C/2024 G7 (ATLAS)
orbit_ArgOfPericenter          = 289.4807
orbit_AscendingNode            = 191.9258
orbit_Eccentricity             = 0.99962
orbit_Epoch                    = 2460476.5
orbit_Inclination              = 131.5167
orbit_PericenterDistance       = 6.032817
orbit_TimeAtPericenter         = 2460715.3234
orbit_good                     = 1000
ref                            = MPEC 2024-K41
slope_parameter                = 4
type                           = comet

